0 ATLAS 5 CENTAUR R/B
1 28473U 04048B   13281.67004144 -.00000022  00000-0  00000+0 0  2482
2 28473 018.8254 325.4219 5713745 186.1954 309.0609 02.06078995 66326
0 ATLAS 5 CENTAUR R/B
1 28473U 04048B   13283.41002142  .00000029  00000-0  10000-3 0  2506
2 28473 018.8116 325.2003 5712681 186.6371 159.9030 02.06077332 66355
0 ATLAS 5 CENTAUR R/B
1 28473U 04048B   13286.70406728 -.00000022  00000-0  00000+0 0  2508
2 28473 018.8182 324.6642 5713388 187.6007 083.6770 02.06080320 66425
0 ATLAS 5 CENTAUR R/B
1 28473U 04048B   13288.77455948 -.00000114  00000-0  00000+0 0  2518
2 28473 018.8155 324.3526 5713161 188.1773 179.7354 02.06081664 66469
0 ATLAS 5 CENTAUR R/B
1 28473U 04048B   13290.19598637  .00000000  00000-0  10000-3 0  2529
2 28473 018.8148 324.1817 5711903 188.5260 154.3057 02.06080618 66488
0 ATLAS 5 CENTAUR R/B
1 28473U 04048B   13292.87700329 -.00000299  00000-0  00000+0 0  2525
2 28473 018.8107 323.7353 5712743 189.3175 343.2972 02.06082558 66558
0 ATLAS 5 CENTAUR R/B
1 28473U 04048B   13295.29847900 -.00000281  00000-0  00000+0 0  2533
2 28473 018.8078 323.3708 5712535 189.9904 339.7700 02.06081281 66607
